{
  "version": 0.6,
  "generator": "Overpass API 0.7.62.8 e802775f",
  "osm3s": {
    "timestamp_osm_base": "2025-12-04T11:12:14Z",
    "copyright": "The data included in this document is from www.openstreetmap.org. The data is made available under ODbL."
  },
  "elements": [

{
  "type": "node",
  "id": 262402714,
  "lat": 41.0171629,
  "lon": 28.9698993,
  "tags": {
    "amenity": "restaurant",
    "name": "Hamdi",
    "name:ar": "حمدي"
  }
},
{
  "type": "node",
  "id": 269507766,
  "lat": 41.0309965,
  "lon": 28.9748683,
  "tags": {
    "amenity": "restaurant",
    "name": "Pera Antakya"
  }
},
{
  "type": "node",
  "id": 277139848,
  "lat": 41.0122714,
  "lon": 28.9551177,
  "tags": {
    "amenity": "restaurant",
    "created_by": "JOSM",
    "name": "Pizzeria",
    "name:ar": "بيزاريا",
    "wheelchair": "limited"
  }
},
{
  "type": "node",
  "id": 288821886,
  "lat": 41.0709509,
  "lon": 29.0626164,
  "tags": {
    "amenity": "restaurant",
    "name": "İTO ESHV Tesisleri",
    "name:ar": "مطعم ايتو ايصهاف"
  }
},
{
  "type": "node",
  "id": 414982463,
  "lat": 41.0537075,
  "lon": 28.9335372,
  "tags": {
    "addr:postcode": "34050",
    "amenity": "cafe",
    "cuisine": "coffee_shop",
    "name": "Pierre Loti Kahvehanesi",
    "name:de": "Pierre-Loti-Café",
    "name:en": "Pierre Loti Café",
    "name:pt": "Café Pierre Loti",
    "source": "GPS"
  }
},
{
  "type": "node",
  "id": 463142937,
  "lat": 41.0055966,
  "lon": 28.9793175,
  "tags": {
    "amenity": "cafe",
    "name": "Java Studio Istanbul"
  }
},
{
  "type": "node",
  "id": 481337275,
  "lat": 41.1354436,
  "lon": 29.0896990,
  "tags": {
    "amenity": "restaurant"
  }
},
{
  "type": "node",
  "id": 482032813,
  "lat": 41.1217558,
  "lon": 29.0708274,
  "tags": {
    "amenity": "restaurant",
    "name": "Iskele Restaurant",
    "name:ar": "مطعم اسكيلي"
  }
},
{
  "type": "node",
  "id": 538394067,
  "lat": 41.0858449,
  "lon": 29.0447576,
  "tags": {
    "amenity": "cafe",
    "wheelchair": "yes"
  }
},
{
  "type": "node",
  "id": 621411998,
  "lat": 41.0500520,
  "lon": 29.0129935,
  "tags": {
    "amenity": "cafe",
    "name": "Kır Kahvesi",
    "name:ar": "مقهى كير"
  }
},
{
  "type": "node",
  "id": 656087304,
  "lat": 41.0317779,
  "lon": 28.9821871,
  "tags": {
    "amenity": "cafe",
    "name": "Hanımeli",
    "name:en": "Hanimeli"
  }
},
{
  "type": "node",
  "id": 678337859,
  "lat": 41.0448379,
  "lon": 29.0452112,
  "tags": {
    "amenity": "cafe"
  }
},
{
  "type": "node",
  "id": 772686807,
  "lat": 41.0847588,
  "lon": 29.0429654,
  "tags": {
    "amenity": "restaurant",
    "cuisine": "pizza",
    "name": "Poğaçacı",
    "name:ar": "بيتزا بوغاجاجي",
    "note": "was Popüler Pizza"
  }
},
{
  "type": "node",
  "id": 786899486,
  "lat": 41.0334521,
  "lon": 28.9764018,
  "tags": {
    "amenity": "cafe",
    "name": "Mustafa Abi",
    "name:ar": "مقهى مصطفى ابيه"
  }
},
{
  "type": "node",
  "id": 795613011,
  "lat": 40.9886935,
  "lon": 28.8455540,
  "tags": {
    "amenity": "cafe",
    "name": "Atrium AVM"
  }
},
{
  "type": "node",
  "id": 803882299,
  "lat": 40.9810700,
  "lon": 29.0235259,
  "tags": {
    "amenity": "restaurant",
    "cuisine": "turkish",
    "name": "Lita Mantı",
    "name:ar": "مطعم ليتا مانتي"
  }
},
{
  "type": "node",
  "id": 903438877,
  "lat": 41.0135590,
  "lon": 28.9858813,
  "tags": {
    "amenity": "restaurant",
    "description": "Restaurant setting with a la carte and self serve. Extortionate prices.",
    "name": "Konyalı Restaurant",
    "wheelchair": "limited"
  }
},
{
  "type": "node",
  "id": 911831996,
  "lat": 41.0160390,
  "lon": 28.9299858,
  "tags": {
    "amenity": "restaurant"
  }
},
{
  "type": "node",
  "id": 913571125,
  "lat": 41.0132362,
  "lon": 28.9322470,
  "tags": {
    "addr:street": "Başvekil Caddesi",
    "amenity": "restaurant",
    "name": "Marmara 3 Döner&Kumru",
    "name:ar": "مطعم مرمرا اوتش للشاورما"
  }
},
{
  "type": "node",
  "id": 932366015,
  "lat": 41.0347422,
  "lon": 28.9780262,
  "tags": {
    "amenity": "restaurant",
    "name": "Imroz",
    "name:ar": "إمروز"
  }
},
{
  "type": "node",
  "id": 954989438,
  "lat": 41.1146860,
  "lon": 29.0580020,
  "tags": {
    "amenity": "restaurant",
    "description": "Fish",
    "name": "Fishvar",
    "name:ar": "مطعم فيشفار للسمك"
  }
},
{
  "type": "node",
  "id": 974678738,
  "lat": 41.0265461,
  "lon": 28.9580915,
  "tags": {
    "amenity": "restaurant",
    "name": "Le Caïque",
    "name:ar": "كايك"
  }
},
{
  "type": "node",
  "id": 974678786,
  "lat": 41.0266817,
  "lon": 28.9577591,
  "tags": {
    "amenity": "restaurant",
    "name": "Cibali",
    "name:ar": "جيبالي"
  }
},
{
  "type": "node",
  "id": 974678810,
  "lat": 41.0277032,
  "lon": 28.9565791,
  "tags": {
    "amenity": "cafe",
    "name": "Nev-i"
  }
},
{
  "type": "node",
  "id": 979294406,
  "lat": 41.0416203,
  "lon": 29.0085416,
  "tags": {
    "amenity": "cafe",
    "check_date": "2024-12-16",
    "description": "Nargile, Shisha, water-pipe",
    "name": "Barbaros Cafe",
    "name:ar": "مقهى باربوس"
  }
},
{
  "type": "node",
  "id": 1000022806,
  "lat": 41.0099050,
  "lon": 28.9788475,
  "tags": {
    "amenity": "restaurant",
    "name": "Sultan Mehmet Restaurant & Cafe"
  }
},
{
  "type": "node",
  "id": 1000023064,
  "lat": 41.0119780,
  "lon": 28.9782237,
  "tags": {
    "amenity": "restaurant",
    "name": "The Port Shield Pub & Restaurant",
    "wheelchair": "no"
  }
},
{
  "type": "node",
  "id": 1000033499,
  "lat": 41.0338973,
  "lon": 28.9780052,
  "tags": {
    "addr:postcode": "34000",
    "addr:street": "İstiklal Caddesi",
    "amenity": "restaurant",
    "name:en": "Mahzen",
    "phone": "+902122490329",
    "wheelchair": "no"
  }
},
{
  "type": "node",
  "id": 1000040085,
  "lat": 41.0454981,
  "lon": 29.0069956,
  "tags": {
    "amenity": "restaurant",
    "cuisine": "pizza"
  }
},
{
  "type": "node",
  "id": 1148604452,
  "lat": 40.9821806,
  "lon": 28.8909388,
  "tags": {
    "amenity": "restaurant",
    "cuisine": "turkish",
    "name": "Gelik",
    "name:ar": "مطعم جيليك"
  }
},
{
  "type": "node",
  "id": 1303790856,
  "lat": 41.0657829,
  "lon": 28.9603898,
  "tags": {
    "amenity": "cafe",
    "cuisine": "turkish",
    "internet_access": "wlan",
    "name": "Keyf-i Sadabat Cafe",
    "name:ar": "مقهى كيفي سادابات"
  }
},
{
  "type": "node",
  "id": 1352469368,
  "lat": 41.0211236,
  "lon": 29.0040752,
  "tags": {
    "addr:city": "Üsküdar - Istanbul",
    "addr:street": "Salancak, Üsküdar",
    "amenity": "restaurant",
    "name": "Kız Kulesi",
    "name:ar": "برج البنات التاريخي",
    "name:en": "Maiden's tower",
    "name:es": "Torre de la doncella",
    "name:ru": "Девичья башня",
    "phone": "0216 342 47 47",
    "website": "https://www.geziyerler.com/kiz-kulesi",
    "wheelchair": "no",
    "wheelchair:description": "Refakatçili de olsa tekerlekli sandalyeli için uygun değildir."
  }
},
{
  "type": "node",
  "id": 1380962663,
  "lat": 40.9586557,
  "lon": 28.8389158,
  "tags": {
    "amenity": "restaurant"
  }
},
{
  "type": "node",
  "id": 1394863081,
  "lat": 40.9819815,
  "lon": 29.0229913,
  "tags": {
    "addr:city": "İstanbul",
    "addr:neighbourhood": "Caferağa",
    "addr:street": "Moda Caddesi",
    "amenity": "restaurant",
    "cuisine": "kebab",
    "name": "Kolombo Kebap",
    "name:ar": "مطعم كولومبو كباب",
    "phone": "0216 338 1508",
    "wheelchair": "limited",
    "wheelchair:description": "Giriş düz ayak, masa yüksekliklerinin tekerlekli kullanımına uygun lokantada engelli wc yoktur. 72 kapasiteli bir işletmedir."
  }
},
{
  "type": "node",
  "id": 1394878662,
  "lat": 40.9641098,
  "lon": 29.0705619,
  "tags": {
    "addr:city": "Kadıköy İSTANBUL",
    "addr:housenumber": "9",
    "addr:postcode": "34728",
    "addr:street": "Bağdat Caddesi Yener sokak",
    "amenity": "cafe",
    "cuisine": "bakery_and_pastry",
    "name": "Beyaz Fırın - Erenköy",
    "name:ar": "فرن ومطعم وحلويات بياز فرن",
    "phone": "0 216 360 9090",
    "shop": "alcohol",
    "website": "https://www.beyazfirin.com/magazalar.aspx",
    "wheelchair": "limited",
    "wheelchair:description": "Giriş düz ayak, masa yüksekliklerinin tekerlekli kullanımına uygun lokantada engelli wc yoktur."
  }
},
{
  "type": "node",
  "id": 1394941165,
  "lat": 40.9903722,
  "lon": 29.0237797,
  "tags": {
    "addr:city": "ISTANBUL",
    "addr:housenumber": "19",
    "addr:street": "muvakkithane cad. Kadıköy",
    "amenity": "cafe",
    "name": "Baylan Pastanesi",
    "name:ar": "حلويات بايلان",
    "phone": "0216 346 6350",
    "website": "https://baylangida.com/",
    "wheelchair": "limited"
  }
},
{
  "type": "node",
  "id": 1394975639,
  "lat": 40.9903002,
  "lon": 29.0237155,
  "tags": {
    "addr:city": "İstanbul",
    "addr:housenumber": "14- 16",
    "addr:postcode": "34710",
    "addr:street": "muvakkithane cad. Kadıköy",
    "amenity": "cafe",
    "name": "Ali Muhiddin Hacı Bekir",
    "name:ar": "مقهى الحاج علي محي الدين",
    "name:zh": "阿里糖果铺",
    "phone": "0216 346 0620",
    "website": "http://www.hacibekir.com.tr/",
    "wheelchair": "limited"
  }
},
{
  "type": "node",
  "id": 1457211988,
  "lat": 41.1776512,
  "lon": 29.0955312,
  "tags": {
    "amenity": "restaurant",
    "indoor_seating": "yes",
    "name": "Çam Vadisi",
    "outdoor_seating": "yes"
  }
},
{
  "type": "node",
  "id": 1457212000,
  "lat": 41.1779064,
  "lon": 29.0947642,
  "tags": {
    "amenity": "restaurant"
  }
},
{
  "type": "node",
  "id": 1484074147,
  "lat": 41.0708579,
  "lon": 29.0425191,
  "tags": {
    "amenity": "restaurant",
    "name": "Taskin Kofte",
    "name:ar": "مطعم تاسكين للكفتة"
  }
},
{
  "type": "node",
  "id": 1499929071,
  "lat": 40.9986394,
  "lon": 28.8735705,
  "tags": {
    "amenity": "cafe",
    "name": "Özsüt",
    "name:ar": "مقهى اوز سوت"
  }
},
{
  "type": "node",
  "id": 1501426221,
  "lat": 40.9894630,
  "lon": 29.0243594,
  "tags": {
    "addr:postcode": "34710",
    "amenity": "restaurant",
    "cuisine": "turkish",
    "email": "info@ciya.com.tr",
    "fax": "(216) 349 19 02",
    "name": "Çiya Kebap 2",
    "name:ar": "مطعم جيا كباب",
    "phone": "+902164185115",
    "website": "http://www.ciya.com.tr"
  }
},
{
  "type": "node",
  "id": 1548537973,
  "lat": 40.9082400,
  "lon": 29.0554000,
  "tags": {
    "amenity": "restaurant",
    "cuisine": "regional;turkish"
  }
},
{
  "type": "node",
  "id": 1586627847,
  "lat": 40.9833314,
  "lon": 28.7313017,
  "tags": {
    "amenity": "restaurant",
    "cuisine": "regional",
    "name": "Azcı",
    "name:ar": "مطعم ازجي"
  }
},
{
  "type": "node",
  "id": 1651395786,
  "lat": 41.0273720,
  "lon": 28.9757794,
  "tags": {
    "addr:city": "Istanbul",
    "addr:district": "Beyoğlu",
    "addr:housenumber": "31",
    "addr:postcode": "34425",
    "addr:street": "Serdar-ı Ekrem Caddesi",
    "amenity": "cafe",
    "name": "Mavra Café",
    "name:ar": "مقهى مافرا",
    "phone": "+90 212 252 74 88"
  }
},
{
  "type": "node",
  "id": 1651645640,
  "lat": 41.0242307,
  "lon": 28.9739726,
  "tags": {
    "amenity": "restaurant",
    "cuisine": "greek",
    "name": "Ege Rum Meyhanesi",
    "name:ar": "مطعم ايج روم ميهانسي"
  }
},
{
  "type": "node",
  "id": 1657848459,
  "lat": 41.0305409,
  "lon": 28.9754853,
  "tags": {
    "addr:housenumber": "158A",
    "addr:street": "İstiklal Caddesi",
    "amenity": "cafe",
    "check_date": "2024-11-15",
    "name": "Ada Cafe + Bookstore",
    "name:ar": "مقهى ومكتبة ادا",
    "shop": "books",
    "website": "https://www.adakitapcafe.com/",
    "wheelchair": "limited"
  }
},
{
  "type": "node",
  "id": 1657848472,
  "lat": 41.0329983,
  "lon": 28.9770706,
  "tags": {
    "amenity": "cafe",
    "name": "Ara Cafe",
    "name:ar": "مقهى ارا"
  }
},
{
  "type": "node",
  "id": 1665037864,
  "lat": 41.0323367,
  "lon": 28.9809571,
  "tags": {
    "amenity": "cafe",
    "cuisine": "coffee_shop",
    "name": "Holly Cafe",
    "name:ar": "مقهى هولي"
  }
},
{
  "type": "node",
  "id": 1665037883,
  "lat": 41.0325552,
  "lon": 28.9757155,
  "tags": {
    "addr:housenumber": "7",
    "addr:postcode": "34430",
    "addr:street": "Kallavi Sokağı",
    "amenity": "restaurant",
    "contact:facebook": "Ficcin",
    "contact:instagram": "Ficcin",
    "cuisine": "fish;turkish",
    "diet:vegan": "yes",
    "diet:vegetarian": "yes",
    "internet_access": "wlan",
    "name": "Fıccın",
    "name:ar": "مطعم فيجن للاسماك",
    "website": "https://www.ficcin.com/"
  }
},
{
  "type": "node",
  "id": 1665037887,
  "lat": 41.0327089,
  "lon": 28.9751817,
  "tags": {
    "addr:housenumber": "51",
    "addr:street": "Meşrutiyet Caddesi",
    "amenity": "restaurant",
    "cuisine": "thai",
    "name": "Çok Çok Thai Restaurant",
    "name:ar": "مطعم تشوك تشوك",
    "opening_hours": "Mo 18:00-23:45; Tu-Su 12:00-23:45",
    "phone": "+90 212 292 64 96",
    "website": "https://www.cokcok.com.tr/",
    "wheelchair": "limited"
  }
},
{
  "type": "node",
  "id": 1665037906,
  "lat": 41.0289314,
  "lon": 28.9739962,
  "tags": {
    "amenity": "cafe",
    "name": "House Cafe",
    "name:ar": "مقهى هاوس"
  }
},
{
  "type": "node",
  "id": 1665043572,
  "lat": 41.0334249,
  "lon": 28.9759924,
  "tags": {
    "amenity": "cafe",
    "name": "Cafe Grand Boulevard",
    "name:ar": "مقهى بوليفارد"
  }
},
{
  "type": "node",
  "id": 1665857196,
  "lat": 41.0439797,
  "lon": 28.9947939,
  "tags": {
    "amenity": "cafe",
    "name": "Süslü Cafe",
    "name:ar": "مقهى سوسلو",
    "name:en": "Sütlü Cafe",
    "name:tr": "Sütlü Cafe"
  }
},
{
  "type": "node",
  "id": 1686926745,
  "lat": 41.0309828,
  "lon": 28.9900897,
  "tags": {
    "amenity": "cafe",
    "internet_access": "yes",
    "name": "Servet Cafe"
  }
},
{
  "type": "node",
  "id": 1686926753,
  "lat": 41.0307319,
  "lon": 28.9851198,
  "tags": {
    "amenity": "cafe",
    "internet_access": "yes",
    "name": "Cafe Susam",
    "name:ar": "مقهى سوسام",
    "smoking": "yes"
  }
},
{
  "type": "node",
  "id": 1686926758,
  "lat": 41.0310597,
  "lon": 28.9824078,
  "tags": {
    "amenity": "cafe",
    "check_date": "2025-04-01",
    "name": "Firuz Cafe",
    "name:ar": "مقهى فيروز",
    "outdoor_seating": "yes"
  }
},
{
  "type": "node",
  "id": 1686926762,
  "lat": 41.0317219,
  "lon": 28.9906491,
  "tags": {
    "amenity": "cafe"
  }
},
{
  "type": "node",
  "id": 1686930450,
  "lat": 41.0296393,
  "lon": 28.9750264,
  "tags": {
    "amenity": "restaurant",
    "name": "Ottaman Burger",
    "name:ar": "برغر اوتمان"
  }
},
{
  "type": "node",
  "id": 1686930451,
  "lat": 41.0290262,
  "lon": 28.9740554,
  "tags": {
    "amenity": "restaurant",
    "name": "Helvetia",
    "name:ar": "مطعم هيلفيتيا"
  }
},
{
  "type": "node",
  "id": 1697171839,
  "lat": 41.0511155,
  "lon": 28.9926497,
  "tags": {
    "amenity": "restaurant",
    "diet:vegetarian": "only",
    "name": "Falafel Veggie"
  }
},
{
  "type": "node",
  "id": 1697174881,
  "lat": 41.0439223,
  "lon": 29.0027240,
  "tags": {
    "amenity": "restaurant",
    "brand": "Loving Hut",
    "brand:wikidata": "Q3491655",
    "brand:wikipedia": "en:Loving Hut",
    "cuisine": "international",
    "diet:vegan": "only",
    "diet:vegetarian": "only",
    "name": "Loving Hut"
  }
},
{
  "type": "node",
  "id": 1741174687,
  "lat": 40.9739968,
  "lon": 28.8739200,
  "tags": {
    "amenity": "restaurant",
    "name": "Gelik ET Ataköy Istanbul",
    "opening_hours": "Mo-Su 12:00-00:00",
    "website": "http://www.gelik.com.tr/EN/index.html"
  }
},
{
  "type": "node",
  "id": 1741185456,
  "lat": 40.9742077,
  "lon": 28.8753382,
  "tags": {
    "amenity": "cafe",
    "name": "Adriano Kumpir Cafe"
  }
},
{
  "type": "node",
  "id": 1741185459,
  "lat": 40.9741576,
  "lon": 28.8747572,
  "tags": {
    "amenity": "cafe",
    "name": "AnadoluM Türkü Evi Bakırköy"
  }
},
{
  "type": "node",
  "id": 1741185461,
  "lat": 40.9741588,
  "lon": 28.8749403,
  "tags": {
    "amenity": "cafe",
    "name": "Cafe Wien"
  }
},
{
  "type": "node",
  "id": 1744048222,
  "lat": 40.9750307,
  "lon": 28.8780973,
  "tags": {
    "amenity": "cafe",
    "name": "Efes"
  }
},
{
  "type": "node",
  "id": 1757629731,
  "lat": 40.9836597,
  "lon": 29.0395575,
  "tags": {
    "amenity": "cafe",
    "brand": "Mado",
    "brand:wikidata": "Q17116336",
    "brand:wikipedia": "en:Mado (food company)",
    "cuisine": "coffee_shop",
    "name": "Mado",
    "takeaway": "yes"
  }
},
{
  "type": "node",
  "id": 1762077465,
  "lat": 41.0026967,
  "lon": 28.9742648,
  "tags": {
    "addr:city": "istanbul",
    "addr:housename": "Cheers",
    "addr:housenumber": "18",
    "addr:street": "çayıroglu Sk.",
    "amenity": "restaurant",
    "capacity": "40",
    "cuisine": "Turkish_and_International",
    "name": "Cheers Soul Kitchen",
    "name:ar": "مطبخ تشير سول"
  }
},
{
  "type": "node",
  "id": 1762082631,
  "lat": 41.0029302,
  "lon": 28.9755855,
  "tags": {
    "amenity": "restaurant",
    "name": "Boukoleon Fish Restaurant",
    "name:ar": "مطعم سمك بوكوليين",
    "website": "http://www.boukoleon.com/"
  }
},
{
  "type": "node",
  "id": 1762083460,
  "lat": 41.0031733,
  "lon": 28.9745331,
  "tags": {
    "amenity": "restaurant",
    "name": "Sultan’s Inn",
    "name:ar": "مطعم سلطان إن",
    "tourism": "hotel",
    "website": "https://www.sultansinn.com/",
    "wikidata": "Q111400262"
  }
},
{
  "type": "node",
  "id": 1768294237,
  "lat": 41.0913113,
  "lon": 29.0666699,
  "tags": {
    "amenity": "restaurant",
    "name": "Lacivert"
  }
},
{
  "type": "node",
  "id": 1768294289,
  "lat": 41.0639692,
  "lon": 29.0330189,
  "tags": {
    "amenity": "restaurant",
    "email": "info@sunsetgrillbar.com",
    "name": "Sunset",
    "official_name": "Sunset Grill&Bar",
    "phone": "+90 212 287 03 57;+90 212 287 03 58",
    "website": "https://www.sunsetgrillbar.com/"
  }
},
{
  "type": "node",
  "id": 1769514222,
  "lat": 41.0166939,
  "lon": 28.9625453,
  "tags": {
    "amenity": "restaurant",
    "cuisine": "regional",
    "name": "Daruzziyafe",
    "name:ar": "داروزييافي",
    "wheelchair": "limited"
  }
},
{
  "type": "node",
  "id": 1770695055,
  "lat": 40.9932197,
  "lon": 28.7952826,
  "tags": {
    "amenity": "cafe",
    "name": "kaktüs"
  }
},
{
  "type": "node",
  "id": 1784925344,
  "lat": 41.0092963,
  "lon": 28.9810833,
  "tags": {
    "amenity": "restaurant",
    "cuisine": "turkish",
    "name": "Karakol Restaurant"
  }
},
{
  "type": "node",
  "id": 1784925350,
  "lat": 41.0098698,
  "lon": 28.9795524,
  "tags": {
    "amenity": "restaurant",
    "name": "Sarnic Restaurant"
  }
},
{
  "type": "node",
  "id": 1784925351,
  "lat": 41.0097888,
  "lon": 28.9794451,
  "tags": {
    "air_conditioning": "yes",
    "amenity": "restaurant",
    "indoor_seating": "yes",
    "name": "Sofia",
    "opening_hours": "Mo-Su 11:00-23:00",
    "outdoor_seating": "yes",
    "payment:credit_cards": "yes",
    "payment:debit_cards": "yes",
    "wheelchair": "no"
  }
},
{
  "type": "node",
  "id": 1785651799,
  "lat": 40.9789941,
  "lon": 28.8505814,
  "tags": {
    "amenity": "restaurant",
    "name": "Midpoint"
  }
},
{
  "type": "node",
  "id": 1808533830,
  "lat": 41.0036587,
  "lon": 28.9807319,
  "tags": {
    "addr:city": "İstanbul",
    "addr:housenumber": "9",
    "addr:postcode": "34122",
    "addr:street": "Yenigüvey Sokağı",
    "amenity": "restaurant",
    "cuisine": "greek;turkish",
    "name": "Giritli",
    "name:ar": "كريتلِي",
    "opening_hours": "13:00-00:00",
    "phone": "+90 212 458 2270",
    "website": "http://www.giritlirestoran.com"
  }
},
{
  "type": "node",
  "id": 1832071149,
  "lat": 41.0361630,
  "lon": 28.9796630,
  "tags": {
    "amenity": "restaurant",
    "cuisine": "turkish",
    "name": "Mangal Keyfi"
  }
},
{
  "type": "node",
  "id": 1832189913,
  "lat": 40.9743673,
  "lon": 28.8753958,
  "tags": {
    "addr:district": "Bakırköy",
    "amenity": "cafe",
    "brand": "Mado",
    "brand:wikidata": "Q17116336",
    "brand:wikipedia": "en:Mado (food company)",
    "cuisine": "coffee_shop",
    "internet_access": "wlan",
    "internet_access:fee": "no",
    "name": "Mado",
    "takeaway": "yes"
  }
},
{
  "type": "node",
  "id": 1834383973,
  "lat": 40.9839912,
  "lon": 29.0239803,
  "tags": {
    "air_conditioning": "no",
    "amenity": "cafe",
    "brand": "Mado",
    "brand:wikidata": "Q17116336",
    "brand:wikipedia": "en:Mado (food company)",
    "cuisine": "coffee_shop",
    "diet:vegetarian": "yes",
    "indoor_seating": "yes",
    "name": "Mado",
    "opening_hours": "Mo-Fr 09:00-23:00; Sa,Su 09:00-24:00",
    "outdoor_seating": "yes",
    "smoking": "outside",
    "takeaway": "yes"
  }
},
{
  "type": "node",
  "id": 1863058677,
  "lat": 41.0806378,
  "lon": 29.0355521,
  "tags": {
    "addr:housenumber": "1/2",
    "addr:postcode": "34337",
    "addr:street": "Bıyıklı Mehmet Paşa Sok.",
    "amenity": "restaurant",
    "cuisine": "international",
    "name": "Allsports Cafe",
    "website": "https://www.allsportscafe.com/"
  }
},
{
  "type": "node",
  "id": 1863206661,
  "lat": 41.0634470,
  "lon": 28.9915469,
  "tags": {
    "amenity": "cafe",
    "brand": "Starbucks",
    "brand:wikidata": "Q37158",
    "brand:wikipedia": "en:Starbucks",
    "check_date": "2024-06-16",
    "check_date:opening_hours": "2024-06-16",
    "cuisine": "coffee_shop",
    "internet_access": "wlan",
    "name": "Starbucks",
    "official_name": "Starbucks Coffee",
    "opening_hours:signed": "no",
    "takeaway": "yes"
  }
},
{
  "type": "node",
  "id": 1863224851,
  "lat": 41.0766760,
  "lon": 29.0264450,
  "tags": {
    "addr:housename": "Akmerkez",
    "amenity": "cafe",
    "brand": "Starbucks",
    "brand:wikidata": "Q37158",
    "brand:wikipedia": "en:Starbucks",
    "cuisine": "coffee_shop",
    "internet_access": "wlan",
    "internet_access:fee": "no",
    "name": "Starbucks",
    "official_name": "Starbucks Coffee",
    "takeaway": "yes"
  }
},
{
  "type": "node",
  "id": 1867001075,
  "lat": 40.9781481,
  "lon": 29.0778894,
  "tags": {
    "amenity": "cafe",
    "cuisine": "coffee_shop",
    "name": "Pelit Pastanesi"
  }
},
{
  "type": "node",
  "id": 1867006340,
  "lat": 40.9777390,
  "lon": 29.0802212,
  "tags": {
    "amenity": "restaurant",
    "cuisine": "pizza",
    "name": "Murat Karadeniz Pide"
  }
},
{
  "type": "node",
  "id": 1874213314,
  "lat": 40.9908849,
  "lon": 28.7142416,
  "tags": {
    "amenity": "restaurant",
    "name": "WestMix",
    "website": "http://www.westmix.com.tr/"
  }
},
{
  "type": "node",
  "id": 1898334690,
  "lat": 41.0245922,
  "lon": 28.9800280,
  "tags": {
    "amenity": "restaurant",
    "cuisine": "international;regional;michelin_starred",
    "name": "Karaköy Lokantası",
    "website": "http://www.karakoylokantasi.com/"
  }
},
{
  "type": "node",
  "id": 1900626451,
  "lat": 41.0041488,
  "lon": 28.9821511,
  "tags": {
    "addr:city": "İstanbul",
    "addr:district": "Fatih",
    "addr:housenumber": "9",
    "addr:street": "Ahırkapı Caddesi",
    "amenity": "restaurant",
    "name": "Cankurtaran Öğretmenevi",
    "outdoor_seating": "yes",
    "phone": "+90 212 5176893;+90 212 5172411",
    "website": "https://cankurtaranogretmenevi.com.tr/"
  }
},
{
  "type": "node",
  "id": 1908677120,
  "lat": 41.0072661,
  "lon": 28.9791652,
  "tags": {
    "amenity": "restaurant",
    "cuisine": "turkish",
    "name": "Mihri",
    "wheelchair": "limited"
  }
},
{
  "type": "node",
  "id": 1909658610,
  "lat": 41.0395558,
  "lon": 28.9847147,
  "tags": {
    "amenity": "restaurant",
    "cuisine": "chinese",
    "name": "Ming Garden"
  }
},
{
  "type": "node",
  "id": 1912249067,
  "lat": 41.0261695,
  "lon": 28.9814634,
  "tags": {
    "amenity": "cafe",
    "name": "Culture Romans"
  }
},
{
  "type": "node",
  "id": 1912881340,
  "lat": 41.0395385,
  "lon": 28.9834201,
  "tags": {
    "amenity": "restaurant",
    "cuisine": "korean",
    "name": "Gaya"
  }
},
{
  "type": "node",
  "id": 1912881345,
  "lat": 41.0397676,
  "lon": 28.9854160,
  "tags": {
    "amenity": "restaurant",
    "cuisine": "korean",
    "name": "Taksim Karaoke"
  }
},
{
  "type": "node",
  "id": 1912881346,
  "lat": 41.0405112,
  "lon": 28.9853334,
  "tags": {
    "amenity": "restaurant",
    "cuisine": "japanese",
    "internet_access": "wlan",
    "name": "Udonya Japanese Restaurant",
    "opening_hours": "Mo-Su 12:00-22:00"
  }
},
{
  "type": "node",
  "id": 1914160115,
  "lat": 41.0064234,
  "lon": 28.9808349,
  "tags": {
    "amenity": "restaurant",
    "cuisine": "mediterranean",
    "name": "Divella",
    "phone": "05334329863"
  }
},
{
  "type": "node",
  "id": 1914160119,
  "lat": 41.0099971,
  "lon": 28.9794755,
  "tags": {
    "amenity": "restaurant",
    "name": "Cistern Restaurant"
  }
},
{
  "type": "node",
  "id": 1914160123,
  "lat": 41.0030316,
  "lon": 28.9753442,
  "tags": {
    "amenity": "restaurant",
    "cuisine": "seafood",
    "name": "Karina Fish House",
    "name:ar": "مطعم كارينا فش هاوس"
  }
},
{
  "type": "node",
  "id": 1914160124,
  "lat": 41.0033965,
  "lon": 28.9742599,
  "tags": {
    "addr:housenumber": "10",
    "addr:street": "Cankurtaran Meydanı",
    "amenity": "restaurant",
    "cuisine": "asian",
    "email": "hansarang.istanbul@gmail.com",
    "name": "Korean Chinese",
    "name:ar": "مطعك كوري صيني",
    "phone": "+902125161128"
  }
},
{
  "type": "node",
  "id": 1914160125,
  "lat": 41.0031267,
  "lon": 28.9743156,
  "tags": {
    "amenity": "restaurant",
    "cuisine": "italian",
    "name": "Nostra Casa",
    "name:ar": "مطعم نوسترا كاسا"
  }
},
{
  "type": "node",
  "id": 1914160126,
  "lat": 41.0053655,
  "lon": 28.9800889,
  "tags": {
    "amenity": "restaurant",
    "cuisine": "korean",
    "name": "Seoul II Restaurant"
  }
},
{
  "type": "node",
  "id": 1915178434,
  "lat": 40.9971177,
  "lon": 29.0482829,
  "tags": {
    "amenity": "cafe",
    "name": "uğur cafe caybahcesi"
  }
},
{
  "type": "node",
  "id": 1915390150,
  "lat": 41.0278772,
  "lon": 28.9738042,
  "tags": {
    "amenity": "restaurant",
    "cuisine": "italian",
    "name": "Komün",
    "website": "https://www.komunistanbul.com/",
    "wheelchair": "no"
  }
},
{
  "type": "node",
  "id": 1918327840,
  "lat": 41.0869550,
  "lon": 29.0060260,
  "tags": {
    "amenity": "restaurant",
    "created_by": "iLOE 1.9",
    "name": "Kaşıkçı Pilav"
  }
},
{
  "type": "node",
  "id": 1920239631,
  "lat": 40.9905661,
  "lon": 29.0247947,
  "tags": {
    "amenity": "restaurant",
    "name": "Pehlivan"
  }
},
{
  "type": "node",
  "id": 1920280837,
  "lat": 40.9901587,
  "lon": 29.0273657,
  "tags": {
    "amenity": "cafe",
    "name": "Hasret Çayocağı"
  }
},
{
  "type": "node",
  "id": 1920284168,
  "lat": 41.0494680,
  "lon": 29.0762049,
  "tags": {
    "amenity": "restaurant",
    "cuisine": "turkish",
    "name": "Paşa Çadırı"
  }
},
{
  "type": "node",
  "id": 1921444709,
  "lat": 41.0116374,
  "lon": 29.0389765,
  "tags": {
    "amenity": "cafe",
    "branch": "Koşuyolu",
    "brand": "Starbucks",
    "brand:wikidata": "Q37158",
    "cuisine": "coffee_shop",
    "internet_access": "wlan",
    "name": "Starbucks",
    "official_name": "Starbucks Coffee",
    "takeaway": "yes",
    "wheelchair": "limited"
  }
},
{
  "type": "node",
  "id": 1934747147,
  "lat": 40.9783506,
  "lon": 28.8509544,
  "tags": {
    "addr:housename": "Ataköyplus AVM",
    "amenity": "cafe",
    "brand": "Starbucks",
    "brand:wikidata": "Q37158",
    "brand:wikipedia": "en:Starbucks",
    "cuisine": "coffee_shop",
    "internet_access": "wlan",
    "internet_access:fee": "no",
    "internet_access:ssid": "Wispotter",
    "name": "Starbucks",
    "official_name": "Starbucks Coffee",
    "smoking": "outside",
    "takeaway": "yes"
  }
},
{
  "type": "node",
  "id": 1934747999,
  "lat": 40.9782350,
  "lon": 28.8510293,
  "tags": {
    "addr:housename": "Ataköyplus AVM",
    "amenity": "restaurant",
    "cuisine": "international",
    "name": "Big Chef's"
  }
},
{
  "type": "node",
  "id": 1935272831,
  "lat": 40.9773026,
  "lon": 28.8721529,
  "tags": {
    "amenity": "restaurant",
    "cuisine": "international",
    "name": "Midpoint"
  }
},
{
  "type": "node",
  "id": 1964586932,
  "lat": 41.0438739,
  "lon": 29.0438237,
  "tags": {
    "amenity": "cafe",
    "brand": "Mado",
    "brand:wikidata": "Q17116336",
    "cuisine": "coffee_shop",
    "int_name": "Mado",
    "name": "Mado",
    "takeaway": "yes",
    "wifi": "no"
  }
},
{
  "type": "node",
  "id": 1964722074,
  "lat": 41.0439465,
  "lon": 29.0440266,
  "tags": {
    "amenity": "cafe",
    "cuisine": "turkish",
    "name": "Beylerbeyi Profiterol"
  }
},
{
  "type": "node",
  "id": 2048295680,
  "lat": 41.0051300,
  "lon": 28.9637100,
  "tags": {
    "amenity": "restaurant",
    "cuisine": "regional",
    "name": "Lokanta",
    "name:ar": "لوكانتا"
  }
},
{
  "type": "node",
  "id": 2055997023,
  "lat": 41.0665216,
  "lon": 28.9733240,
  "tags": {
    "amenity": "restaurant",
    "name": "KARDEŞLER LOKANTASI"
  }
},
{
  "type": "node",
  "id": 2113030155,
  "lat": 41.0144807,
  "lon": 28.9450856,
  "tags": {
    "addr:city": "İstanbul",
    "addr:district": "Fatih",
    "amenity": "cafe",
    "brand": "Starbucks",
    "brand:wikidata": "Q37158",
    "brand:wikipedia": "en:Starbucks",
    "cuisine": "coffee_shop",
    "level": "0",
    "name": "Starbucks",
    "name:ar": "ستار بوكس",
    "official_name": "Starbucks Coffee",
    "takeaway": "yes",
    "website": "https://www.starbucks.com.tr/",
    "wheelchair": "yes"
  }
},
{
  "type": "node",
  "id": 2129082395,
  "lat": 40.9711603,
  "lon": 29.0841418,
  "tags": {
    "addr:city": "İstanbul",
    "addr:district": "Kadıköy",
    "addr:housename": "Çadırlıköşk Apt.",
    "addr:housenumber": "158",
    "addr:neighbourhood": "19 Mayıs Mahallesi",
    "addr:postcode": "34736",
    "addr:street": "Şemsettin Günaltay Cad.",
    "amenity": "cafe",
    "brand": "Starbucks",
    "brand:wikidata": "Q37158",
    "brand:wikipedia": "en:Starbucks",
    "cuisine": "coffee_shop",
    "internet_access": "wlan",
    "internet_access:fee": "no",
    "name": "Starbucks",
    "official_name": "Starbucks Coffee",
    "opening_hours": "07:00 - 23:00",
    "takeaway": "yes",
    "website": "https://www.starbucks.co.uk/store-locator/7085-150313/kazasker"
  }
},
{
  "type": "node",
  "id": 2193688113,
  "lat": 41.0863967,
  "lon": 29.0060289,
  "tags": {
    "addr:city": "Istanbul",
    "amenity": "cafe",
    "name": "Türkmen Cafe"
  }
},
{
  "type": "node",
  "id": 2201702996,
  "lat": 41.1689798,
  "lon": 29.0586933,
  "tags": {
    "amenity": "cafe",
    "name": "Sarıyer Spor Kulübü Kafeteryası"
  }
},
{
  "type": "node",
  "id": 2201704997,
  "lat": 41.1688849,
  "lon": 29.0576874,
  "tags": {
    "amenity": "cafe",
    "cuisine": "regional",
    "name": "Meşhur Sarıyer Börekçisi"
  }
},
{
  "type": "node",
  "id": 2201709410,
  "lat": 41.1675805,
  "lon": 29.0573066,
  "tags": {
    "amenity": "cafe",
    "cuisine": "regional",
    "name": "Sarıyer Hünkar Börekçisi"
  }
},
{
  "type": "node",
  "id": 2201709413,
  "lat": 41.1684831,
  "lon": 29.0571590,
  "tags": {
    "amenity": "cafe",
    "cuisine": "regional",
    "name": "Tarihi Sarıyer Muhallebicisi"
  }
},
{
  "type": "node",
  "id": 2201741096,
  "lat": 41.1722647,
  "lon": 29.0659218,
  "tags": {
    "amenity": "restaurant",
    "cuisine": "turkish",
    "designation": "Military",
    "name": "Yenimahalle Astsubay Orduevi"
  }
},
{
  "type": "node",
  "id": 2245028847,
  "lat": 41.0833743,
  "lon": 29.0531835,
  "tags": {
    "amenity": "cafe",
    "wheelchair": "yes"
  }
},
{
  "type": "node",
  "id": 2249787153,
  "lat": 41.0062489,
  "lon": 28.9695260,
  "tags": {
    "amenity": "restaurant",
    "cuisine": "regional",
    "internet_access": "no",
    "name": "Sultan's Kitchen",
    "name:ar": "مطعم السلطان",
    "smoking": "no"
  }
},
{
  "type": "node",
  "id": 2261194405,
  "lat": 41.0682401,
  "lon": 29.0009827,
  "tags": {
    "amenity": "restaurant",
    "cuisine": "turkish",
    "name": "Salon Cafe"
  }
},
{
  "type": "node",
  "id": 2261194419,
  "lat": 41.0675022,
  "lon": 29.0014307,
  "tags": {
    "amenity": "cafe",
    "name": "Yücel Simit"
  }
},
{
  "type": "node",
  "id": 2261194420,
  "lat": 41.0680826,
  "lon": 29.0014065,
  "tags": {
    "amenity": "cafe",
    "cuisine": "sandwich",
    "name": "Melita Pastanesi"
  }
},
{
  "type": "node",
  "id": 2261194423,
  "lat": 41.0677024,
  "lon": 29.0010337,
  "tags": {
    "amenity": "cafe",
    "brand": "Kahve Dünyası",
    "brand:wikidata": "Q28008050",
    "cuisine": "coffee_shop",
    "name": "Kahve Dünyası",
    "takeaway": "yes"
  }
},
{
  "type": "node",
  "id": 2261241220,
  "lat": 41.0686953,
  "lon": 29.0019483,
  "tags": {
    "amenity": "restaurant",
    "cuisine": "international",
    "name": "Akademi Lezzet"
  }
},
{
  "type": "node",
  "id": 2261241222,
  "lat": 41.0684001,
  "lon": 29.0016050,
  "tags": {
    "amenity": "restaurant"
  }
},
{
  "type": "node",
  "id": 2261241223,
  "lat": 41.0689377,
  "lon": 29.0020583,
  "tags": {
    "amenity": "restaurant",
    "cuisine": "turkish",
    "name": "İmer Cafe"
  }
},
{
  "type": "node",
  "id": 2261380678,
  "lat": 41.0632132,
  "lon": 29.0662247,
  "tags": {
    "amenity": "restaurant",
    "name": "Rasathane Kebap"
  }
},
{
  "type": "node",
  "id": 2277774144,
  "lat": 40.9839281,
  "lon": 29.0720712,
  "tags": {
    "addr:city": "İstanbul",
    "addr:housename": "Necatibey Apartmanı",
    "addr:housenumber": "17/E",
    "addr:postcode": "34732",
    "addr:street": "Şair Arşi Caddesi",
    "amenity": "cafe",
    "cuisine": "turkish",
    "name": "Cafe Mod",
    "wheelchair": "no"
  }
},
{
  "type": "node",
  "id": 2279958697,
  "lat": 41.0671818,
  "lon": 29.0035370,
  "tags": {
    "addr:housenumber": "109A",
    "addr:street": "Büyükdere Caddesi",
    "air_conditioning": "yes",
    "amenity": "restaurant",
    "cuisine": "turkish",
    "delivery": "yes",
    "highchair": "yes",
    "level": "0",
    "name": "Kartal Közde Döner",
    "opening_hours": "Mo-Sa 11:00-21:00; PH closed",
    "outdoor_seating": "yes",
    "phone": "+90 212 217 94 97",
    "smoking": "outside",
    "takeaway": "yes",
    "website:order": "https://www.yemeksepeti.com/restaurant/lqys/kartal-kozde-doner-lqys",
    "wheelchair": "limited"
  }
},
{
  "type": "node",
  "id": 2280003591,
  "lat": 41.0678138,
  "lon": 29.0067149,
  "tags": {
    "amenity": "restaurant",
    "name": "Limma"
  }
},
{
  "type": "node",
  "id": 2335299802,
  "lat": 41.0419480,
  "lon": 29.0048682,
  "tags": {
    "amenity": "cafe",
    "internet_access": "wlan",
    "internet_access:fee": "no",
    "name": "Kırmızı Kedi Café",
    "outdoor_seating": "yes"
  }
},
{
  "type": "node",
  "id": 2342484787,
  "lat": 41.0001504,
  "lon": 28.8613870,
  "tags": {
    "amenity": "cafe",
    "name": "Piramit Cafe"
  }
},
{
  "type": "node",
  "id": 2363440350,
  "lat": 41.0567323,
  "lon": 28.9155332,
  "tags": {
    "addr:city": "İstanbul",
    "addr:district": "Gaziosmanpaşa",
    "addr:housenumber": "2/A",
    "addr:neighbourhood": "Merkez",
    "addr:postcode": "34245",
    "addr:street": "Merkez Caddesi",
    "amenity": "cafe",
    "name": "Kahve Diyarı"
  }
},
{
  "type": "node",
  "id": 2378238756,
  "lat": 41.0860548,
  "lon": 29.0484362,
  "tags": {
    "amenity": "restaurant",
    "cuisine": "regional",
    "name": "Yenice"
  }
},
{
  "type": "node",
  "id": 2380564071,
  "lat": 41.0357323,
  "lon": 28.9835307,
  "tags": {
    "amenity": "restaurant",
    "name": "Hatay Medeniyetler Sofrasi",
    "name:ar": "مطعم المدينة",
    "website": "http://hataymedeniyetlersofrasi.com.tr/"
  }
},
{
  "type": "node",
  "id": 2383708227,
  "lat": 41.0743140,
  "lon": 29.0581857,
  "tags": {
    "addr:city": "Üsküdar -  İstanbul",
    "addr:housenumber": "17",
    "addr:street": "Kandilli İskele Caddesi",
    "amenity": "restaurant",
    "cuisine": "seafood",
    "name": "Suna'nın Yeri",
    "note": "Great seafood right at the Bosperus",
    "phone": "+90 0216 332 32 41",
    "website": "http://www.sunaninyeri.com/"
  }
},
{
  "type": "node",
  "id": 2384256934,
  "lat": 41.0560168,
  "lon": 29.0739787,
  "tags": {
    "amenity": "cafe",
    "internet_access": "yes",
    "name": "Aslı Börek"
  }
},
{
  "type": "node",
  "id": 2385038543,
  "lat": 41.0571211,
  "lon": 29.0728664,
  "tags": {
    "amenity": "restaurant"
  }
},
{
  "type": "node",
  "id": 2433366990,
  "lat": 40.9851586,
  "lon": 29.0267607,
  "tags": {
    "amenity": "restaurant",
    "name": "Asmakat"
  }
},
{
  "type": "node",
  "id": 2433366998,
  "lat": 40.9807700,
  "lon": 29.0238104,
  "tags": {
    "amenity": "cafe",
    "brand": "Caffè Nero",
    "brand:wikidata": "Q675808",
    "brand:wikipedia": "en:Caffè Nero",
    "cuisine": "coffee_shop",
    "name": "Caffè Nero",
    "takeaway": "yes"
  }
},
{
  "type": "node",
  "id": 2433367006,
  "lat": 40.9872627,
  "lon": 29.0275241,
  "tags": {
    "amenity": "restaurant",
    "check_date": "2024-11-01",
    "name": "My Chef"
  }
},
{
  "type": "node",
  "id": 2433367009,
  "lat": 40.9871580,
  "lon": 29.0277250,
  "tags": {
    "amenity": "restaurant",
    "name": "Fries Dinosaurs"
  }
},
{
  "type": "node",
  "id": 2433367013,
  "lat": 40.9877422,
  "lon": 29.0283594,
  "tags": {
    "addr:city": "Istanbul",
    "addr:district": "Kadıköy",
    "addr:housenumber": "60",
    "addr:neighbourhood": "Caferağa Mahallesi",
    "addr:street": "General Asım Gündüz Caddesi",
    "amenity": "cafe",
    "check_date": "2024-11-01",
    "name": "Vitavien Bahariye",
    "phone": "(0216) 348 48 18",
    "website": "www.vitavien.com.tr"
  }
},
{
  "type": "node",
  "id": 2433367014,
  "lat": 40.9806145,
  "lon": 29.0236037,
  "tags": {
    "amenity": "cafe",
    "brand": "Starbucks",
    "brand:wikidata": "Q37158",
    "brand:wikipedia": "en:Starbucks",
    "cuisine": "coffee_shop",
    "internet_access:fee": "yes",
    "name": "Starbucks",
    "official_name": "Starbucks Coffee",
    "outdoor_seating": "yes",
    "takeaway": "yes"
  }
},
{
  "type": "node",
  "id": 2433367015,
  "lat": 40.9892319,
  "lon": 29.0286943,
  "tags": {
    "alt_name": "Starbucks Bahariye",
    "amenity": "cafe",
    "brand": "Starbucks",
    "brand:wikidata": "Q37158",
    "brand:wikipedia": "en:Starbucks",
    "check_date": "2023-11-22",
    "cuisine": "coffee_shop",
    "name": "Starbucks",
    "official_name": "Starbucks Coffee",
    "takeaway": "yes",
    "wheelchair": "no"
  }
},
{
  "type": "node",
  "id": 2433572998,
  "lat": 40.9812268,
  "lon": 29.0226592,
  "tags": {
    "amenity": "restaurant",
    "cuisine": "pizza",
    "name": "Rosa"
  }
},
{
  "type": "node",
  "id": 2433671847,
  "lat": 40.9819366,
  "lon": 29.0229711,
  "tags": {
    "addr:street": "Moda Caddesi",
    "amenity": "restaurant",
    "cuisine": "turkish",
    "name": "Köyüm Pidecisi",
    "toilets:wheelchair": "no",
    "wheelchair": "limited"
  }
},
{
  "type": "node",
  "id": 2433671856,
  "lat": 40.9873504,
  "lon": 29.0260508,
  "tags": {
    "addr:postcode": "34710",
    "air_conditioning": "yes",
    "amenity": "restaurant",
    "bar": "yes",
    "check_date": "2023-02-19",
    "contact:instagram": "viktorlevimoda",
    "cuisine": "steak_house;turkish",
    "name": "Viktor Levi Şarap Evi",
    "name:en": "Viktor Levi Wine House",
    "opening_hours": "Mo-Su 11:00-02:00",
    "outdoor_seating": "yes",
    "source": "survey",
    "start_date": "1914-01-01",
    "website": "https://www.viktorlevimoda.com/",
    "wheelchair": "no"
  }
},
{
  "type": "node",
  "id": 2433719104,
  "lat": 40.9991992,
  "lon": 28.8587095,
  "tags": {
    "addr:city": "İstanbul",
    "addr:street": "Adnan Kahveci Bulvarı",
    "amenity": "cafe",
    "cuisine": "coffee_shop",
    "internet_access": "yes",
    "name": "Kahve Durağı Bahçelievler"
  }
},
{
  "type": "node",
  "id": 2434610505,
  "lat": 40.9649076,
  "lon": 29.0658986,
  "tags": {
    "amenity": "restaurant",
    "name": "Havelka",
    "opening_hours": "PH,Mo-Su 09:00-14:00"
  }
},
{
  "type": "node",
  "id": 2436912680,
  "lat": 40.9814605,
  "lon": 29.0372757,
  "tags": {
    "amenity": "restaurant",
    "name": "Khalkedon Kalamış"
  }
},
{
  "type": "node",
  "id": 2437124304,
  "lat": 40.9703041,
  "lon": 29.0380379,
  "tags": {
    "amenity": "cafe"
  }
},
{
  "type": "node",
  "id": 2437124306,
  "lat": 40.9704405,
  "lon": 29.0381361,
  "tags": {
    "amenity": "cafe"
  }
},
{
  "type": "node",
  "id": 2437124308,
  "lat": 40.9705776,
  "lon": 29.0382382,
  "tags": {
    "amenity": "cafe"
  }
},
{
  "type": "node",
  "id": 2437124309,
  "lat": 40.9707274,
  "lon": 29.0383516,
  "tags": {
    "amenity": "cafe"
  }
},
{
  "type": "node",
  "id": 2437124310,
  "lat": 40.9708902,
  "lon": 29.0384650,
  "tags": {
    "amenity": "cafe",
    "name": "Midpoint"
  }
},
{
  "type": "node",
  "id": 2437539081,
  "lat": 40.9737385,
  "lon": 29.0485311,
  "tags": {
    "amenity": "cafe",
    "brand": "Starbucks",
    "brand:wikidata": "Q37158",
    "brand:wikipedia": "en:Starbucks",
    "cuisine": "coffee_shop",
    "name": "Starbucks",
    "official_name": "Starbucks Coffee",
    "takeaway": "yes"
  }
},
{
  "type": "node",
  "id": 2437539083,
  "lat": 40.9620573,
  "lon": 29.0766394,
  "tags": {
    "addr:city": "İstanbul",
    "addr:district": "Kadıköy",
    "addr:housenumber": "386",
    "addr:neighbourhood": "Suadiye Mahallesi",
    "addr:postcode": "34740",
    "addr:street": "Bağdat Caddesi",
    "amenity": "cafe",
    "name": "Tchibo",
    "website": "https://www.zomato.com/tr/istanbul/tchibo-%C5%9Fa%C5%9Fk%C4%B1nbakkal-istanbul"
  }
},
{
  "type": "node",
  "id": 2437539220,
  "lat": 40.9701773,
  "lon": 29.0379385,
  "tags": {
    "amenity": "cafe"
  }
},
{
  "type": "node",
  "id": 2440840867,
  "lat": 40.9802892,
  "lon": 29.0257515,
  "tags": {
    "addr:city": "İstanbul",
    "addr:district": "Kadıköy",
    "addr:neighbourhood": "Caferağa Mahallesi",
    "addr:postcode": "34710",
    "addr:street": "Moda Mektebi Sokağı",
    "amenity": "cafe",
    "name": "Big Chefs Moda Teras",
    "opening_hours": "09:00 - 00:00",
    "website": "https://www.bigchefs.com.tr/tr-tr/moda-teras"
  }
},
{
  "type": "node",
  "id": 2445138826,
  "lat": 40.9911042,
  "lon": 29.0239520,
  "tags": {
    "amenity": "restaurant",
    "name": "Chicken Last Stop"
  }
},
{
  "type": "node",
  "id": 2445188954,
  "lat": 40.9904416,
  "lon": 29.0294732,
  "tags": {
    "amenity": "restaurant",
    "name": "Köfteci Ramiz"
  }
},
{
  "type": "node",
  "id": 2445188962,
  "lat": 40.9910149,
  "lon": 29.0249414,
  "tags": {
    "amenity": "cafe",
    "brand": "Simit Sarayı",
    "brand:wikidata": "Q28042608",
    "check_date": "2023-11-23",
    "name": "Simit Sarayı",
    "shop": "bakery",
    "wheelchair": "limited"
  }
},
{
  "type": "node",
  "id": 2445188964,
  "lat": 40.9905422,
  "lon": 29.0234634,
  "tags": {
    "addr:floor": "0",
    "amenity": "cafe",
    "brand": "Starbucks",
    "brand:wikidata": "Q37158",
    "brand:wikipedia": "en:Starbucks",
    "check_date": "2025-05-19",
    "contact:facebook": "StarbucksTurkiye",
    "contact:instagram": "starbucks_tr",
    "contact:tiktok": "starbucks_turkiye",
    "contact:twitter": "StarbucksTR",
    "contact:youtube": "StarbucksTr",
    "cuisine": "coffee_shop",
    "level": "0",
    "name": "Starbucks",
    "official_name": "Starbucks Coffee",
    "opening_hours": "Mo-Su 06:00-24:00",
    "operator": "Shaya Kahve",
    "operator:ref": "7690310116",
    "outdoor_seating": "yes",
    "payment:cash": "yes",
    "payment:credit_cards": "yes",
    "payment:debit_cards": "yes",
    "phone": "+90 850 9697717",
    "takeaway": "yes",
    "toilets": "yes",
    "website": "https://www.starbucks.com.tr/",
    "wheelchair": "limited"
  }
},
{
  "type": "node",
  "id": 2445263836,
  "lat": 40.9903070,
  "lon": 29.0239636,
  "tags": {
    "addr:housenumber": "13",
    "addr:postcode": "34710",
    "addr:street": "Muvakkıthane Caddesi",
    "amenity": "restaurant",
    "name": "Ekspres İnegöl Köftecisi",
    "website": "https://www.ekspresinegolkoftecisi.com/index.cgi?sayfa=subeler"
  }
},
{
  "type": "node",
  "id": 2445263859,
  "lat": 40.9890527,
  "lon": 29.0240410,
  "tags": {
    "amenity": "restaurant",
    "name": "Şelale"
  }
},
{
  "type": "node",
  "id": 2445278893,
  "lat": 40.9849205,
  "lon": 29.0266310,
  "tags": {
    "amenity": "restaurant",
    "name": "Törek"
  }
},
{
  "type": "node",
  "id": 2447596593,
  "lat": 40.9588315,
  "lon": 29.0715769,
  "tags": {
    "amenity": "cafe",
    "name": "Beltur",
    "outdoor_seating": "yes"
  }
},
{
  "type": "node",
  "id": 2449446062,
  "lat": 40.9936352,
  "lon": 29.0250995,
  "tags": {
    "amenity": "cafe",
    "branch": "Kadıköy",
    "brand": "Mado",
    "brand:wikidata": "Q17116336",
    "brand:wikipedia": "en:Mado (food company)",
    "cuisine": "coffee_shop",
    "name": "Mado",
    "takeaway": "yes",
    "wheelchair": "no"
  }
},
{
  "type": "node",
  "id": 2449446066,
  "lat": 40.9930844,
  "lon": 29.0250697,
  "tags": {
    "amenity": "cafe",
    "name": "Kadıköy Saray Muhallebicisi"
  }
},
{
  "type": "node",
  "id": 2449446067,
  "lat": 40.9929009,
  "lon": 29.0250489,
  "tags": {
    "amenity": "cafe",
    "brand": "Simit Sarayı",
    "brand:wikidata": "Q28042608",
    "name": "Simit Sarayı",
    "shop": "bakery"
  }
},
{
  "type": "node",
  "id": 2449655755,
  "lat": 40.9855903,
  "lon": 29.0275689,
  "tags": {
    "amenity": "restaurant",
    "name": "Zevk Lokanta"
  }
},
{
  "type": "node",
  "id": 2449858605,
  "lat": 40.9807758,
  "lon": 29.0234876,
  "tags": {
    "addr:street": "Moda Caddesi",
    "amenity": "cafe",
    "name": "It's OK"
  }
},
{
  "type": "node",
  "id": 2450075006,
  "lat": 40.9915565,
  "lon": 29.0313696,
  "tags": {
    "amenity": "restaurant",
    "name": "Pehlivan"
  }
},
{
  "type": "node",
  "id": 2450994885,
  "lat": 40.9815478,
  "lon": 29.0219332,
  "tags": {
    "amenity": "restaurant",
    "name": "Casa di Moda"
  }
},
{
  "type": "node",
  "id": 2452245712,
  "lat": 40.9793775,
  "lon": 29.0388010,
  "tags": {
    "amenity": "cafe",
    "outdoor_seating": "yes",
    "smoking": "outside"
  }
},
{
  "type": "node",
  "id": 2453594560,
  "lat": 40.9908881,
  "lon": 29.0266204,
  "tags": {
    "addr:city": "İstanbul",
    "addr:housenumber": "40",
    "addr:neighbourhood": "Osmanağa Mahallesi",
    "addr:postcode": "34160",
    "addr:street": "Söğütlüçeşme Caddesi",
    "amenity": "restaurant",
    "check_date": "2022-09-20",
    "cuisine": "regional",
    "diet:halal": "yes",
    "diet:vegan": "yes",
    "diet:vegetarian": "yes",
    "internet_access": "wlan",
    "internet_access:fee": "customers",
    "name": "Destan Halk Lokantası",
    "payment:credit_cards": "yes",
    "payment:debit_cards": "yes",
    "wheelchair": "yes"
  }
},
{
  "type": "node",
  "id": 2460942679,
  "lat": 41.0117796,
  "lon": 28.9493245,
  "tags": {
    "amenity": "restaurant",
    "cuisine": "turkish",
    "name": "Cigeristan",
    "name:ar": "جيكيرستان"
  }
},
{
  "type": "node",
  "id": 2461026759,
  "lat": 40.9729054,
  "lon": 29.0744490,
  "tags": {
    "amenity": "restaurant",
    "cuisine": "turkish",
    "name": "Şölen",
    "website": "https://solendoner.com/"
  }
},
{
  "type": "node",
  "id": 2464107195,
  "lat": 40.9710174,
  "lon": 29.0389537,
  "tags": {
    "amenity": "cafe",
    "name": "Burj"
  }
},
{
  "type": "node",
  "id": 2464107201,
  "lat": 40.9710528,
  "lon": 29.0389413,
  "tags": {
    "amenity": "cafe",
    "name": "Ci-Cafe"
  }
},
{
  "type": "node",
  "id": 2465881545,
  "lat": 40.9881530,
  "lon": 29.0282951,
  "tags": {
    "amenity": "restaurant",
    "name": "Happy Moon's Kadıköy"
  }
},
{
  "type": "node",
  "id": 2469099189,
  "lat": 40.9701280,
  "lon": 29.0382243,
  "tags": {
    "addr:postcode": "34726",
    "addr:street": "Fener Kalamış Caddesi",
    "amenity": "cafe",
    "name": "Salon Kalamış"
  }
},
{
  "type": "node",
  "id": 2469886154,
  "lat": 40.9532458,
  "lon": 29.0951248,
  "tags": {
    "amenity": "cafe",
    "name": "Hasan Usta Bostancı İskele"
  }
},
{
  "type": "node",
  "id": 2469886157,
  "lat": 40.9567202,
  "lon": 29.0876677,
  "tags": {
    "amenity": "cafe",
    "brand": "Mado",
    "brand:wikidata": "Q17116336",
    "brand:wikipedia": "en:Mado (food company)",
    "cuisine": "coffee_shop",
    "name": "Mado",
    "takeaway": "yes"
  }
},
{
  "type": "node",
  "id": 2469886159,
  "lat": 40.9568872,
  "lon": 29.0875306,
  "tags": {
    "amenity": "restaurant",
    "name": "SushiCo Suadiye"
  }
},
{
  "type": "node",
  "id": 2469886173,
  "lat": 40.9527134,
  "lon": 29.0962782,
  "tags": {
    "amenity": "restaurant",
    "name": "Çınaraltı Mangalbaşı"
  }
},
{
  "type": "node",
  "id": 2475512655,
  "lat": 40.9714963,
  "lon": 29.0384970,
  "tags": {
    "amenity": "cafe",
    "name": "Belvü Asur Cafe"
  }
},
{
  "type": "node",
  "id": 2475512656,
  "lat": 40.9716441,
  "lon": 29.0384856,
  "tags": {
    "amenity": "restaurant",
    "barrier": "wall",
    "name": "Belvü Jardin Restaurant"
  }
},
{
  "type": "node",
  "id": 2477002788,
  "lat": 40.9681369,
  "lon": 29.0514930,
  "tags": {
    "amenity": "cafe"
  }
},
{
  "type": "node",
  "id": 2482903872,
  "lat": 40.9885309,
  "lon": 28.7160837,
  "tags": {
    "amenity": "restaurant",
    "cuisine": "regional",
    "name": "Mola Ev Yemekleri"
  }
},
{
  "type": "node",
  "id": 2493192142,
  "lat": 40.9728909,
  "lon": 29.0406050,
  "tags": {
    "amenity": "cafe",
    "check_date": "2024-05-13",
    "name": "Bodrum Mantı & Cafe"
  }
}

  ]
}
